{
    "links": {
        "self": "http://www.neowsapp.com/rest/v1/neo/3740099?api_key=iIulBulltgU6a56xZRHN4H3l9WmuAYTsLGpBGhQ2"
    },
    "id": "3740099",
    "neo_reference_id": "3740099",
    "name": "(2016 AC166)",
    "designation": "2016 AC166",
    "nasa_jpl_url": "http://ssd.jpl.nasa.gov/sbdb.cgi?sstr=3740099",
    "absolute_magnitude_h": 23.3,
    "estimated_diameter": {
        "kilometers": {
            "estimated_diameter_min": 0.058150704,
            "estimated_diameter_max": 0.130028927
        },
        "meters": {
            "estimated_diameter_min": 58.1507039646,
            "estimated_diameter_max": 130.0289270043
        },
        "miles": {
            "estimated_diameter_min": 0.0361331611,
            "estimated_diameter_max": 0.0807962044
        },
        "feet": {
            "estimated_diameter_min": 190.7831555951,
            "estimated_diameter_max": 426.6041048727
        }
    },
    "is_potentially_hazardous_asteroid": false,
    "close_approach_data": [
        {
            "close_approach_date": "2016-01-09",
            "close_approach_date_full": "2016-Jan-09 23:28",
            "epoch_date_close_approach": 1452382080000,
            "relative_velocity": {
                "kilometers_per_second": "19.7472665753",
                "kilometers_per_hour": "71090.159671139",
                "miles_per_hour": "44172.6606023253"
            },
            "miss_distance": {
                "astronomical": "0.0263456457",
                "lunar": "10.2484561773",
                "kilometers": "3941252.480494659",
                "miles": "2448980.7306339342"
            },
            "orbiting_body": "Earth"
        },
        {
            "close_approach_date": "2018-01-25",
            "close_approach_date_full": "2018-Jan-25 03:46",
            "epoch_date_close_approach": 1516851960000,
            "relative_velocity": {
                "kilometers_per_second": "25.3495253406",
                "kilometers_per_hour": "91258.2912260603",
                "miles_per_hour": "56704.3532343262"
            },
            "miss_distance": {
                "astronomical": "0.3144464182",
                "lunar": "122.3196566798",
                "kilometers": "47040514.391849234",
                "miles": "29229620.2475940692"
            },
            "orbiting_body": "Earth"
        }
    ],
    "orbital_data": {
        "orbit_id": "4",
        "orbit_determination_date": "2017-04-06 08:29:07",
        "first_observation_date": "2016-01-15",
        "last_observation_date": "2016-01-21",
        "data_arc_in_days": 6,
        "observations_used": 29,
        "orbit_uncertainty": "8",
        "minimum_orbit_intersection": ".0192337",
        "jupiter_tisserand_invariant": "4.068",
        "epoch_osculation": "2457404.5",
        "eccentricity": ".4389456729187736",
        "semi_major_axis": "1.615217279789643",
        "inclination": "32.23521254092982",
        "ascending_node_longitude": "110.5362444590604",
        "orbital_period": "749.7989967912523",
        "perihelion_distance": ".9062246440023469",
        "perihelion_argument": "312.7433909439908",
        "aphelion_distance": "2.324209915576938",
        "perihelion_time": "2457361.085888083202",
        "mean_anomaly": "20.84436009774829",
        "mean_motion": ".4801286765394616",
        "equinox": "J2000",
        "orbit_class": {
            "orbit_class_type": "APO",
            "orbit_class_description": "Near-Earth asteroid orbits which cross the Earth’s orbit similar to that of 1862 Apollo",
            "orbit_class_range": "a (semi-major axis) > 1.0 AU; q (perihelion) < 1.017 AU"
        }
    },
    "is_sentry_object": false
}